IRIDIUM 136             
1 42962U 17061H   24050.65905419  .00000629  00000+0  21749-3 0  9990
2 42962  86.3990  19.8361 0002100  80.5460 279.5973 14.34217782333217
